[{"OBJECT_NAME":"STARLINK-3674","OBJECT_ID":"2022-025V","EPOCH":"2026-03-09T06:32:05.700480","MEAN_MOTION":15.30177312,"ECCENTRICITY":0.00014249,"INCLINATION":53.1603,"RA_OF_ASC_NODE":25.7727,"ARG_OF_PERICENTER":85.3718,"MEAN_ANOMALY":274.7445,"EPHEMERIS_TYPE":0,"CLASSIFICATION_TYPE":"U","NORAD_CAT_ID":51975,"ELEMENT_SET_NO":999,"REV_AT_EPOCH":22096,"BSTAR":7.3980431e-5,"MEAN_MOTION_DOT":1.831e-5,"MEAN_MOTION_DDOT":0},{"OBJECT_NAME":"OBJECT J","OBJECT_ID":"2023-085J","EPOCH":"2026-03-09T22:47:59.920512","MEAN_MOTION":15.31507187,"ECCENTRICITY":0.00067028,"INCLINATION":97.4828,"RA_OF_ASC_NODE":180.1819,"ARG_OF_PERICENTER":41.7877,"MEAN_ANOMALY":318.3875,"EPHEMERIS_TYPE":0,"CLASSIFICATION_TYPE":"U","NORAD_CAT_ID":57012,"ELEMENT_SET_NO":999,"REV_AT_EPOCH":15156,"BSTAR":0.00064525349,"MEAN_MOTION_DOT":0.00019595,"MEAN_MOTION_DDOT":0}]
